NORAD_CAT_ID,OBJECT_NAME,OBJECT_TYPE,EPOCH,MEAN_MOTION,ECCENTRICITY,INCLINATION,RA_OF_ASC_NODE,ARG_OF_PERICENTER,MEAN_ANOMALY,BSTAR,MEAN_MOTION_DOT,MEAN_MOTION_DDOT,TLE_LINE0,TLE_LINE1,TLE_LINE2,SEMIMAJOR_AXIS,PERIOD,APOGEE,PERIGEE,DECAYED
50165.0,STARLINK-3298,PAYLOAD,2023-05-29 05:31:52,15.08838154,0.0001185,53.2159,137.6919,81.5843,278.5283,2.2045e-05,6.3e-07,0.0,0 STARLINK-3298,1 50165U 21125K   23149.23047040  .00000063  00000-0  22045-4 0  9993,2 50165  53.2159 137.6919 0001185  81.5843 278.5283 15.08838154 83205,6917.886,95.438,540.571,538.931,0.0
50165.0,STARLINK-3298,PAYLOAD,2023-05-29 16:39:34,15.08841101,0.0001212,53.2161,135.6102,81.5709,278.5421,3.5878e-05,2.83e-06,0.0,0 STARLINK-3298,1 50165U 21125K   23149.69414787  .00000283  00000-0  35878-4 0  9991,2 50165  53.2161 135.6102 0001212  81.5709 278.5421 15.08841101 83279,6917.877,95.437,540.58,538.904,0.0
50165.0,STARLINK-3298,PAYLOAD,2023-05-30 05:22:39,15.08844613,0.0001218,53.216,133.2308,82.4927,277.6203,2.8108e-05,1.6e-06,0.0,0 STARLINK-3298,1 50165U 21125K   23150.22406455  .00000160  00000-0  28108-4 0  9997,2 50165  53.2160 133.2308 0001218  82.4927 277.6203 15.08844613 80229,6917.866,95.437,540.574,538.889,0.0
50165.0,STARLINK-3298,PAYLOAD,2023-05-30 08:33:25,15.0884451,0.000124,53.216,132.6356,84.9455,275.1678,4.6655e-05,4.55e-06,0.0,0 STARLINK-3298,1 50165U 21125K   23150.35654357  .00000455  00000-0  46655-4 0  9991,2 50165  53.2160 132.6356 0001240  84.9455 275.1678 15.08844510 83377,6917.867,95.437,540.589,538.874,0.0
50165.0,STARLINK-3298,PAYLOAD,2023-05-31 08:24:12,15.0884121,0.0001249,53.2162,128.1741,88.6269,271.4866,4.6899e-05,4.59e-06,0.0,0 STARLINK-3298,1 50165U 21125K   23151.35014541  .00000459  00000-0  46899-4 0  9991,2 50165  53.2162 128.1741 0001249  88.6269 271.4866 15.08841210 80391,6917.877,95.437,540.606,538.878,0.0
50165.0,STARLINK-3298,PAYLOAD,2023-05-31 22:42:41,15.08835452,0.0001297,53.2164,125.4974,90.4816,269.6325,-1.5568e-05,-5.36e-06,0.0,0 STARLINK-3298,1 50165U 21125K   23151.94631191 -.00000536  00000-0 -15568-4 0  9999,2 50165  53.2164 125.4974 0001297  90.4816 269.6325 15.08835452 83611,6917.894,95.438,540.657,538.862,0.0
50165.0,STARLINK-3298,PAYLOAD,2023-06-01 05:04:13,15.08837476,0.0001251,53.216,124.308,89.0761,271.0374,-1.4352e-06,-3.11e-06,0.0,0 STARLINK-3298,1 50165U 21125K   23152.21127078 -.00000311  00000-0 -14352-5 0  9996,2 50165  53.2160 124.3080 0001251  89.0761 271.0374 15.08837476 80522,6917.888,95.438,540.619,538.888,0.0
50165.0,STARLINK-3298,PAYLOAD,2023-06-02 08:05:47,15.0883882,0.0001225,53.2167,119.2547,91.3445,268.7688,1.9112e-05,1.6e-07,0.0,0 STARLINK-3298,1 50165U 21125K   23153.33735238  .00000016  00000-0  19112-4 0  9991,2 50165  53.2167 119.2547 0001225  91.3445 268.7688 15.08838820 80699,6917.884,95.438,540.596,538.902,0.0
50165.0,STARLINK-3298,PAYLOAD,2023-06-03 04:45:48,15.08836723,0.0001252,53.2164,115.3889,94.5251,265.5884,6.032e-05,6.72e-06,0.0,0 STARLINK-3298,1 50165U 21125K   23154.19847602  .00000672  00000-0  60320-4 0  9990,2 50165  53.2164 115.3889 0001252  94.5251 265.5884 15.08836723 83957,6917.89,95.438,540.622,538.889,0.0
50165.0,STARLINK-3298,PAYLOAD,2023-06-03 20:39:39,15.08839686,0.0001214,53.2165,112.4148,92.8303,267.2828,6.8006e-05,7.95e-06,0.0,0 STARLINK-3298,1 50165U 21125K   23154.86087511  .00000795  00000-0  68006-4 0  9994,2 50165  53.2165 112.4148 0001214  92.8303 267.2828 15.08839686 84051,6917.881,95.438,540.586,538.907,0.0
50165.0,STARLINK-3298,PAYLOAD,2023-06-04 01:25:49,15.08839622,0.0001215,53.2168,111.5227,92.2102,267.9029,6.3198e-05,7.18e-06,0.0,0 STARLINK-3298,1 50165U 21125K   23155.05959548  .00000718  00000-0  63198-4 0  9996,2 50165  53.2168 111.5227 0001215  92.2102 267.9029 15.08839622 80959,6917.882,95.438,540.587,538.906,0.0
50165.0,STARLINK-3298,PAYLOAD,2023-06-04 14:08:54,15.08837691,0.0001271,53.2173,109.1437,86.5794,273.5344,4.4619e-05,4.22e-06,0.0,0 STARLINK-3298,1 50165U 21125K   23155.58951777  .00000422  00000-0  44619-4 0  9999,2 50165  53.2173 109.1437 0001271  86.5794 273.5344 15.08837691 84160,6917.887,95.438,540.632,538.873,0.0
50165.0,STARLINK-3298,PAYLOAD,2023-06-04 20:30:26,15.08837035,0.0001342,53.2176,107.9545,85.7683,274.3463,4.6798e-05,4.57e-06,0.0,0 STARLINK-3298,1 50165U 21125K   23155.85447882  .00000457  00000-0  46798-4 0  9994,2 50165  53.2176 107.9545 0001342  85.7683 274.3463 15.08837035 84204,6917.889,95.438,540.683,538.826,0.0
50165.0,STARLINK-3298,PAYLOAD,2023-06-05 04:27:22,15.08841894,0.000125,53.217,106.4675,87.792,272.3215,4.6245e-05,4.48e-06,0.0,0 STARLINK-3298,1 50165U 21125K   23156.18567556  .00000448  00000-0  46245-4 0  9999,2 50165  53.2170 106.4675 0001250  87.7920 272.3215 15.08841894 81129,6917.875,95.437,540.604,538.875,0.0
50165.0,STARLINK-3298,PAYLOAD,2023-06-05 13:59:41,15.08841392,0.0001285,53.2172,104.6834,87.8684,272.2455,3.9917e-05,3.47e-06,0.0,0 STARLINK-3298,1 50165U 21125K   23156.58311577  .00000347  00000-0  39917-4 0  9999,2 50165  53.2172 104.6834 0001285  87.8684 272.2455 15.08841392 84316,6917.876,95.437,540.63,538.852,0.0
50165.0,STARLINK-3298,PAYLOAD,2023-06-06 02:42:46,15.08842762,0.0001306,53.2174,102.3045,88.6078,271.5064,4.5101e-05,4.3e-06,0.0,0 STARLINK-3298,1 50165U 21125K   23157.11303442  .00000430  00000-0  45101-4 0  9996,2 50165  53.2174 102.3045 0001306  88.6078 271.5064 15.08842762 84395,6917.872,95.437,540.64,538.833,0.0
50165.0,STARLINK-3298,PAYLOAD,2023-06-06 20:12:00,15.08837733,0.0001161,53.2167,99.0327,93.9945,266.118,4.0227e-05,3.52e-06,0.0,0 STARLINK-3298,1 50165U 21125K   23157.84167703  .00000352  00000-0  40227-4 0  9991,2 50165  53.2167  99.0327 0001161  93.9945 266.1180 15.08837733 84507,6917.887,95.438,540.555,538.949,0.0
50165.0,STARLINK-3298,PAYLOAD,2023-06-07 00:58:10,15.08839249,0.0001192,53.2172,98.1409,93.7369,266.376,4.6105e-05,4.46e-06,0.0,0 STARLINK-3298,1 50165U 21125K   23158.04039604  .00000446  00000-0  46105-4 0  9997,2 50165  53.2172  98.1409 0001192  93.7369 266.3760 15.08839249 81402,6917.883,95.438,540.572,538.923,0.0
50165.0,STARLINK-3298,PAYLOAD,2023-06-07 02:33:33,15.08841075,0.0001208,53.2176,97.8433,96.184,263.929,3.613e-05,2.87e-06,0.0,0 STARLINK-3298,1 50165U 21125K   23158.10663513  .00000287  00000-0  36130-4 0  9996,2 50165  53.2176  97.8433 0001208  96.1840 263.9290 15.08841075 84547,6917.877,95.437,540.578,538.906,0.0
50165.0,STARLINK-3298,PAYLOAD,2023-06-08 02:24:20,15.08832702,0.0001066,53.2175,93.3847,91.612,268.4994,6.8523e-05,8.03e-06,0.0,0 STARLINK-3298,1 50165U 21125K   23159.10024171  .00000803  00000-0  68523-4 0  9993,2 50165  53.2175  93.3847 0001066  91.6120 268.4994 15.08832702 81566,6917.903,95.438,540.505,539.03,0.0
50165.0,STARLINK-3298,PAYLOAD,2023-06-09 05:25:53,15.08845527,0.0001046,53.2178,88.3248,95.335,264.7762,4.2302e-05,3.86e-06,0.0,0 STARLINK-3298,1 50165U 21125K   23160.22631466  .00000386  00000-0  42302-4 0  9992,2 50165  53.2178  88.3248 0001046  95.3350 264.7762 15.08845527 81732,6917.863,95.437,540.452,539.005,0.0
50165.0,STARLINK-3298,PAYLOAD,2023-06-09 11:47:25,15.0884721,9.37e-05,53.2177,87.1371,83.2136,276.8963,3.1928e-05,2.21e-06,0.0,0 STARLINK-3298,1 50165U 21125K   23160.49127259  .00000221  00000-0  31928-4 0  9991,2 50165  53.2177  87.1371 0000937  83.2136 276.8963 15.08847210 84901,6917.858,95.437,540.372,539.075,0.0
50165.0,STARLINK-3298,PAYLOAD,2023-06-10 03:41:18,15.08835694,0.0001189,53.2185,84.1686,88.8162,271.2966,2.0414e-05,3.7e-07,0.0,0 STARLINK-3298,1 50165U 21125K   23161.15368504  .00000037  00000-0  20414-4 0  9998,2 50165  53.2185  84.1686 0001189  88.8162 271.2966 15.08835694 81874,6917.894,95.438,540.581,538.936,0.0
50165.0,STARLINK-3298,PAYLOAD,2023-06-10 11:38:14,15.08835168,0.0001025,53.2172,82.6792,83.4698,276.6411,1.8801e-05,1.1e-07,0.0,0 STARLINK-3298,1 50165U 21125K   23161.48488579  .00000011  00000-0  18801-4 0  9998,2 50165  53.2172  82.6792 0001025  83.4698 276.6411 15.08835168 85059,6917.895,95.438,540.469,539.051,0.0
50165.0,STARLINK-3298,PAYLOAD,2023-06-11 03:32:04,15.08847771,0.0001063,53.2174,79.7058,94.0643,266.0471,-2.0545e-05,-6.15e-06,0.0,0 STARLINK-3298,1 50165U 21125K   23162.14728006 -.00000615  00000-0 -20545-4 0  9994,2 50165  53.2174  79.7058 0001063  94.0643 266.0471 15.08847771 82029,6917.857,95.437,540.457,538.986,0.0
50165.0,STARLINK-3298,PAYLOAD,2023-06-11 11:29:00,15.08842774,0.0001308,53.2187,78.2175,86.4027,273.7114,-2.7073e-06,-3.31e-06,0.0,0 STARLINK-3298,1 50165U 21125K   23162.47848291 -.00000331  00000-0 -27073-5 0  9998,2 50165  53.2187  78.2175 0001308  86.4027 273.7114 15.08842774 85200,6917.872,95.437,540.642,538.832,0.0
50165.0,STARLINK-3298,PAYLOAD,2023-06-11 19:25:57,15.08832843,0.0001431,53.2184,76.7317,81.9045,278.2109,8.0264e-05,9.89e-06,0.0,0 STARLINK-3298,1 50165U 21125K   23162.80968781  .00000989  00000-0  80264-4 0  9999,2 50165  53.2184  76.7317 0001431  81.9045 278.2109 15.08832843 85250,6917.902,95.438,540.757,538.777,0.0
50165.0,STARLINK-3298,PAYLOAD,2023-06-12 03:22:52,15.08839834,0.0001384,53.2182,75.2448,81.9273,278.1876,3.1544e-05,2.14e-06,0.0,0 STARLINK-3298,1 50165U 21125K   23163.14088572  .00000214  00000-0  31544-4 0  9996,2 50165  53.2182  75.2448 0001384  81.9273 278.1876 15.08839834 82172,6917.881,95.438,540.703,538.788,0.0
50165.0,STARLINK-3298,PAYLOAD,2023-06-12 11:19:48,15.08839703,0.0001345,53.218,73.7584,85.1533,274.9613,2.4352e-05,1e-06,0.0,0 STARLINK-3298,1 50165U 21125K   23163.47208594  .00000100  00000-0  24352-4 0  9993,2 50165  53.2180  73.7584 0001345  85.1533 274.9613 15.08839703 85357,6917.881,95.438,540.677,538.816,0.0
50165.0,STARLINK-3298,PAYLOAD,2023-06-13 03:13:39,15.0883823,0.0001335,53.2182,70.7847,93.3792,266.7353,8.7515e-05,1.105e-05,0.0,0 STARLINK-3298,1 50165U 21125K   23164.13448497  .00001105  00000-0  87515-4 0  9991,2 50165  53.2182  70.7847 0001335  93.3792 266.7353 15.08838230 85450,6917.886,95.438,540.674,538.827,0.0
